XRISM                   
1 57800U 23137A   24213.90233973  .00007909  00000+0  58672-3 0  9999
2 57800  31.0031  87.8657 0010022 293.0232  66.9347 15.01726399 49334
